{"type": "FeatureCollection", "features": [ {"type": "Feature", "properties": {"norad_id": 66559, "name": "STARLINK-35419", "group": "last-30-days", "lat": -14.546910176042847, "lon": -66.48076252750087, "alt_km": 415.561979566477, "timestamp": "2025-12-16T19:34:23.016530+00:00", "meta": {"OBJECT_NAME": "STARLINK-35419", "OBJECT_ID": "2025-268C", "EPOCH": "2025-12-15T16:25:40.934784", "MEAN_MOTION": 15.50593296, "ECCENTRICITY": 0.00026, "INCLINATION": 42.9984, "RA_OF_ASC_NODE": 103.9678, "ARG_OF_PERICENTER": 269.6124, "MEAN_ANOMALY": 90.4439, "EPHEMERIS_TYPE": 0, "CLASSIFICATION_TYPE": "U", "NORAD_CAT_ID": 66559, "ELEMENT_SET_NO": 999, "REV_AT_EPOCH": 508, "BSTAR": 0.0011361626, "MEAN_MOTION_DOT": 0.00066922, "MEAN_MOTION_DDOT": 0}, "tle": {"line1": "1 66559U 25268C   25349.68450156  .00066922  00000+0  11362-2 0  9991", "line2": "2 66559  42.9984 103.9678 0002600 269.6124  90.4439 15.50593296  5088"}}, "geometry": {"type": "Point", "coordinates": [-66.48076252750087, -14.546910176042847]}}, {"type": "Feature", "properties": {"norad_id": 66560, "name": "STARLINK-35411", "group": "last-30-days", "lat": -15.83023085371119, "lon": -64.94044610935984, "alt_km": 415.7520759803192, "timestamp": "2025-12-16T19:34:23.016543+00:00", "meta": {"OBJECT_NAME": "STARLINK-35411", "OBJECT_ID": "2025-268D", "EPOCH": "2025-12-15T17:57:57.700800", "MEAN_MOTION": 15.50643049, "ECCENTRICITY": 0.0002042, "INCLINATION": 42.9998, "RA_OF_ASC_NODE": 103.5882, "ARG_OF_PERICENTER": 272.5318, "MEAN_ANOMALY": 87.5308, "EPHEMERIS_TYPE": 0, "CLASSIFICATION_TYPE": "U", "NORAD_CAT_ID": 66560, "ELEMENT_SET_NO": 999, "REV_AT_EPOCH": 509, "BSTAR": 0.00091635961, "MEAN_MOTION_DOT": 0.00053913, "MEAN_MOTION_DDOT": 0}, "tle": {"line1": "1 66560U 25268D   25349.74858450  .00053913  00000+0  91636-3 0  9998", "line2": "2 66560  42.9998 103.5882 0002042 272.5318  87.5308 15.50643049  5091"}}, "geometry": {"type": "Point", "coordinates": [-64.94044610935984, -15.83023085371119]}}, {"type": "Feature", "properties": {"norad_id": 66561, "name": "STARLINK-35305", "group": "last-30-days", "lat": -18.263494079527696, "lon": -61.921757850471586, "alt_km": 416.08133244517103, "timestamp": "2025-12-16T19:34:23.016554+00:00", "meta": {"OBJECT_NAME": "STARLINK-35305", "OBJECT_ID": "2025-268E", "EPOCH": "2025-12-15T17:56:56.830272", "MEAN_MOTION": 15.50556187, "ECCENTRICITY": 0.00013798, "INCLINATION": 42.9996, "RA_OF_ASC_NODE": 103.584, "ARG_OF_PERICENTER": 275.7888, "MEAN_ANOMALY": 84.2815, "EPHEMERIS_TYPE": 0, "CLASSIFICATION_TYPE": "U", "NORAD_CAT_ID": 66561, "ELEMENT_SET_NO": 999, "REV_AT_EPOCH": 509, "BSTAR": 0.0015983264, "MEAN_MOTION_DOT": 0.00094487, "MEAN_MOTION_DDOT": 0}, "tle": {"line1": "1 66561U 25268E   25349.74787998  .00094487  00000+0  15983-2 0  9998", "line2": "2 66561  42.9996 103.5840 0001379 275.7888  84.2815 15.50556187  5096"}}, "geometry": {"type": "Point", "coordinates": [-61.921757850471586, -18.263494079527696]}}, {"type": "Feature", "properties": {"norad_id": 66562, "name": "STARLINK-35579", "group": "last-30-days", "lat": -16.903653075240953, "lon": -63.626393022658895, "alt_km": 416.0547803722602, "timestamp": "2025-12-16T19:34:23.016564+00:00", "meta": {"OBJECT_NAME": "STARLINK-35579", "OBJECT_ID": "2025-268F", "EPOCH": "2025-12-15T14:51:58.091904", "MEAN_MOTION": 15.50561462, "ECCENTRICITY": 0.00018101, "INCLINATION": 42.9992, "RA_OF_ASC_NODE": 104.3385, "ARG_OF_PERICENTER": 275.7942, "MEAN_ANOMALY": 84.2711, "EPHEMERIS_TYPE": 0, "CLASSIFICATION_TYPE": "U", "NORAD_CAT_ID": 66562, "ELEMENT_SET_NO": 999, "REV_AT_EPOCH": 507, "BSTAR": 0.0011242939, "MEAN_MOTION_DOT": 0.00066134, "MEAN_MOTION_DDOT": 0}, "tle": {"line1": "1 66562U 25268F   25349.61942236  .00066134  00000+0  11243-2 0  9996", "line2": "2 66562  42.9992 104.3385 0001810 275.7942  84.2711 15.50561462  5072"}}, "geometry": {"type": "Point", "coordinates": [-63.626393022658895, -16.903653075240953]}}, {"type": "Feature", "properties": {"norad_id": 66563, "name": "STARLINK-35437", "group": "last-30-days", "lat": -19.600981327244764, "lon": -60.2008957379956, "alt_km": 416.44578102645573, "timestamp": "2025-12-16T19:34:23.016574+00:00", "meta": {"OBJECT_NAME": "STARLINK-35437", "OBJECT_ID": "2025-268G", "EPOCH": "2025-12-15T16:23:40.741152", "MEAN_MOTION": 15.50601833, "ECCENTRICITY": 0.00035208, "INCLINATION": 42.9973, "RA_OF_ASC_NODE": 103.957, "ARG_OF_PERICENTER": 294.6285, "MEAN_ANOMALY": 65.4208, "EPHEMERIS_TYPE": 0, "CLASSIFICATION_TYPE": "U", "NORAD_CAT_ID": 66563, "ELEMENT_SET_NO": 999, "REV_AT_EPOCH": 508, "BSTAR": 0.0013972444, "MEAN_MOTION_DOT": 0.00082577, "MEAN_MOTION_DDOT": 0}, "tle": {"line1": "1 66563U 25268G   25349.68311043  .00082577  00000+0  13972-2 0  9990", "line2": "2 66563  42.9973 103.9570 0003520 294.6285  65.4208 15.50601833  5083"}}, "geometry": {"type": "Point", "coordinates": [-60.2008957379956, -19.600981327244764]}}, {"type": "Feature", "properties": {"norad_id": 66564, "name": "STARLINK-35358", "group": "last-30-days", "lat": -20.68686253321938, "lon": -58.767448718411345, "alt_km": 415.9938044400751, "timestamp": "2025-12-16T19:34:23.016584+00:00", "meta": {"OBJECT_NAME": "STARLINK-35358", "OBJECT_ID": "2025-268H", "EPOCH": "2025-12-15T16:23:12.810624", "MEAN_MOTION": 15.50598451, "ECCENTRICITY": 0.00022623, "INCLINATION": 42.9981, "RA_OF_ASC_NODE": 103.9542, "ARG_OF_PERICENTER": 271.5199, "MEAN_ANOMALY": 88.5402, "EPHEMERIS_TYPE": 0, "CLASSIFICATION_TYPE": "U", "NORAD_CAT_ID": 66564, "ELEMENT_SET_NO": 999, "REV_AT_EPOCH": 508, "BSTAR": 0.0010819585, "MEAN_MOTION_DOT": 0.00063697, "MEAN_MOTION_DDOT": 0}, "tle": {"line1": "1 66564U 25268H   25349.68278716  .00063697  00000+0  10820-2 0  9991", "line2": "2 66564  42.9981 103.9542 0002262 271.5199  88.5402 15.50598451  5085"}}, "geometry": {"type": "Point", "coordinates": [-58.767448718411345, -20.68686253321938]}}, {"type": "Feature", "properties": {"norad_id": 66565, "name": "STARLINK-35893", "group": "last-30-days", "lat": -21.871287417830896, "lon": -57.15961756783893, "alt_km": 416.7691977084178, "timestamp": "2025-12-16T19:34:23.016595+00:00", "meta": {"OBJECT_NAME": "STARLINK-35893", "OBJECT_ID": "2025-268J", "EPOCH": "2025-12-15T16:22:43.533120", "MEAN_MOTION": 15.50586099, "ECCENTRICITY": 0.00012075, "INCLINATION": 42.997, "RA_OF_ASC_NODE": 103.9514, "ARG_OF_PERICENTER": 305.8195, "MEAN_ANOMALY": 54.2553, "EPHEMERIS_TYPE": 0, "CLASSIFICATION_TYPE": "U", "NORAD_CAT_ID": 66565, "ELEMENT_SET_NO": 999, "REV_AT_EPOCH": 508, "BSTAR": 0.0012503508, "MEAN_MOTION_DOT": 0.00073723, "MEAN_MOTION_DDOT": 0}, "tle": {"line1": "1 66565U 25268J   25349.68244830  .00073723  00000+0  12504-2 0  9994", "line2": "2 66565  42.9970 103.9514 0001207 305.8195  54.2553 15.50586099  5080"}}, "geometry": {"type": "Point", "coordinates": [-57.15961756783893, -21.871287417830896]}}, {"type": "Feature", "properties": {"norad_id": 66566, "name": "STARLINK-35871", "group": "last-30-days", "lat": -23.093270604461612, "lon": -55.457619184887136, "alt_km": 415.89576838798894, "timestamp": "2025-12-16T19:34:23.016619+00:00", "meta": {"OBJECT_NAME": "STARLINK-35871", "OBJECT_ID": "2025-268K", "EPOCH": "2025-12-15T16:22:13.307808", "MEAN_MOTION": 15.50613314, "ECCENTRICITY": 0.00026941, "INCLINATION": 43.0029, "RA_OF_ASC_NODE": 103.9463, "ARG_OF_PERICENTER": 271.1381, "MEAN_ANOMALY": 88.9171, "EPHEMERIS_TYPE": 0, "CLASSIFICATION_TYPE": "U", "NORAD_CAT_ID": 66566, "ELEMENT_SET_NO": 999, "REV_AT_EPOCH": 508, "BSTAR": 0.0011293655, "MEAN_MOTION_DOT": 0.00066564, "MEAN_MOTION_DDOT": 0}, "tle": {"line1": "1 66566U 25268K   25349.68209847  .00066564  00000+0  11294-2 0  9994", "line2": "2 66566  43.0029 103.9463 0002694 271.1381  88.9171 15.50613314  5085"}}, "geometry": {"type": "Point", "coordinates": [-55.457619184887136, -23.093270604461612]}}, {"type": "Feature", "properties": {"norad_id": 66567, "name": "STARLINK-35825", "group": "last-30-days", "lat": -24.15407623504719, "lon": -53.9201229659343, "alt_km": 416.7535826781832, "timestamp": "2025-12-16T19:34:23.016631+00:00", "meta": {"OBJECT_NAME": "STARLINK-35825", "OBJECT_ID": "2025-268L", "EPOCH": "2025-12-15T16:21:44.113248", "MEAN_MOTION": 15.50589598, "ECCENTRICITY": 0.00015369, "INCLINATION": 42.9976, "RA_OF_ASC_NODE": 103.9443, "ARG_OF_PERICENTER": 289.9461, "MEAN_ANOMALY": 70.1233, "EPHEMERIS_TYPE": 0, "CLASSIFICATION_TYPE": "U", "NORAD_CAT_ID": 66567, "ELEMENT_SET_NO": 999, "REV_AT_EPOCH": 508, "BSTAR": 0.00094660219, "MEAN_MOTION_DOT": 0.00055608, "MEAN_MOTION_DDOT": 0}, "tle": {"line1": "1 66567U 25268L   25349.68176057  .00055608  00000+0  94660-3 0  9997", "line2": "2 66567  42.9976 103.9443 0001536 289.9461  70.1233 15.50589598  5081"}}, "geometry": {"type": "Point", "coordinates": [-53.9201229659343, -24.15407623504719]}}, {"type": "Feature", "properties": {"norad_id": 66568, "name": "STARLINK-35803", "group": "last-30-days", "lat": -25.278272741579897, "lon": -52.24110929887936, "alt_km": 416.97739949254174, "timestamp": "2025-12-16T19:34:23.016646+00:00", "meta": {"OBJECT_NAME": "STARLINK-35803", "OBJECT_ID": "2025-268M", "EPOCH": "2025-12-15T16:21:14.632704", "MEAN_MOTION": 15.50582544, "ECCENTRICITY": 9.557e-05, "INCLINATION": 42.9957, "RA_OF_ASC_NODE": 103.9413, "ARG_OF_PERICENTER": 297.4388, "MEAN_ANOMALY": 62.6375, "EPHEMERIS_TYPE": 0, "CLASSIFICATION_TYPE": "U", "NORAD_CAT_ID": 66568, "ELEMENT_SET_NO": 999, "REV_AT_EPOCH": 508, "BSTAR": 0.00097560652, "MEAN_MOTION_DOT": 0.0005732, "MEAN_MOTION_DDOT": 0}, "tle": {"line1": "1 66568U 25268M   25349.68141936  .00057320  00000+0  97561-3 0  9992", "line2": "2 66568  42.9957 103.9413 0000955 297.4388  62.6375 15.50582544  5081"}}, "geometry": {"type": "Point", "coordinates": [-52.24110929887936, -25.278272741579897]}}]}